[
    {
        "CCSDS_OMM_VERS": "3.0",
        "COMMENT": "GENERATED VIA SPACE-TRACK.ORG API",
        "CREATION_DATE": "2025-04-12T22:09:39",
        "ORIGINATOR": "18 SPCS",
        "OBJECT_NAME": "GALILEO 30 (10E)",
        "OBJECT_ID": "2024-079C",
        "CENTER_NAME": "EARTH",
        "REF_FRAME": "TEME",
        "TIME_SYSTEM": "UTC",
        "MEAN_ELEMENT_THEORY": "SGP4",
        "EPOCH": "2025-04-11T20:46:02.875584",
        "MEAN_MOTION": "1.70474805",
        "ECCENTRICITY": "0.00004240",
        "INCLINATION": "54.8528",
        "RA_OF_ASC_NODE": "113.1445",
        "ARG_OF_PERICENTER": "306.3292",
        "MEAN_ANOMALY": "53.7121",
        "EPHEMERIS_TYPE": "0",
        "CLASSIFICATION_TYPE": "U",
        "NORAD_CAT_ID": "59600",
        "ELEMENT_SET_NO": "999",
        "REV_AT_EPOCH": "601",
        "BSTAR": "0.00000000000000",
        "MEAN_MOTION_DOT": "0.00000053",
        "MEAN_MOTION_DDOT": "0.0000000000000",
        "SEMIMAJOR_AXIS": "29600.227",
        "PERIOD": "844.700",
        "APOAPSIS": "23223.347",
        "PERIAPSIS": "23220.837",
        "OBJECT_TYPE": "PAYLOAD",
        "RCS_SIZE": "LARGE",
        "COUNTRY_CODE": "ESA",
        "LAUNCH_DATE": "2024-04-28",
        "SITE": "AFETR",
        "DECAY_DATE": null,
        "FILE": "4699941",
        "GP_ID": "285456676",
        "TLE_LINE0": "0 GALILEO 30 (10E)",
        "TLE_LINE1": "1 59600U 24079C   25101.86531106  .00000053  00000-0  00000-0 0  9999",
        "TLE_LINE2": "2 59600  54.8528 113.1445 0000424 306.3292  53.7121  1.70474805  6010"
    }
]